FLOCK 4G-8              
1 62613U 25009E   26068.72381419  .00013559  00000+0  50438-3 0  9996
2 62613  97.4045 151.2834 0003050 315.2538  44.8455 15.27623414 63721
STARLINK-36092          
1 66869U 25281X   26068.17067163  .00027117  00000+0  99106-3 0  9991
2 66869  43.0018 346.6220 0001183 269.2480  90.8236 15.27588836 16097
